{"type": "FeatureCollection", "features": [ {"type": "Feature", "properties": {"norad_id": 30048, "name": "FENGYUN 1C DEB", "group": "fengyun-1c-debris", "lat": -50.544895516567976, "lon": -123.9989795822502, "alt_km": 995.9276842599747, "timestamp": "2025-12-26T15:29:39.712727+00:00", "meta": {"OBJECT_NAME": "FENGYUN 1C DEB", "OBJECT_ID": "1999-025NZ", "EPOCH": "2025-12-26T04:11:02.213952", "MEAN_MOTION": 13.79900171, "ECCENTRICITY": 0.01864553, "INCLINATION": 98.6658, "RA_OF_ASC_NODE": 224.8906, "ARG_OF_PERICENTER": 208.4945, "MEAN_ANOMALY": 278.3119, "EPHEMERIS_TYPE": 0, "CLASSIFICATION_TYPE": "U", "NORAD_CAT_ID": 30048, "ELEMENT_SET_NO": 999, "REV_AT_EPOCH": 95311, "BSTAR": 0.00019512158, "MEAN_MOTION_DOT": 1.91e-06, "MEAN_MOTION_DDOT": 0}, "tle": {"line1": "1 30048U 99025NZ  25360.17433118  .00000191  00000+0  19512-3 0  9995", "line2": "2 30048  98.6658 224.8906 0186455 208.4945 278.3119 13.79900171953119"}}, "geometry": {"type": "Point", "coordinates": [-123.9989795822502, -50.544895516567976]}}, {"type": "Feature", "properties": {"norad_id": 30050, "name": "FENGYUN 1C DEB", "group": "fengyun-1c-debris", "lat": -7.958046679940925, "lon": 136.09853137278367, "alt_km": 1069.2295964192026, "timestamp": "2025-12-26T15:29:39.712738+00:00", "meta": {"OBJECT_NAME": "FENGYUN 1C DEB", "OBJECT_ID": "1999-025PB", "EPOCH": "2025-12-25T19:48:12.389760", "MEAN_MOTION": 13.85088382, "ECCENTRICITY": 0.01709486, "INCLINATION": 96.8194, "RA_OF_ASC_NODE": 316.4593, "ARG_OF_PERICENTER": 353.0578, "MEAN_ANOMALY": 66.7155, "EPHEMERIS_TYPE": 0, "CLASSIFICATION_TYPE": "U", "NORAD_CAT_ID": 30050, "ELEMENT_SET_NO": 999, "REV_AT_EPOCH": 95383, "BSTAR": 0.0012822155, "MEAN_MOTION_DOT": 1.6e-05, "MEAN_MOTION_DDOT": 0}, "tle": {"line1": "1 30050U 99025PB  25359.82514340  .00001600  00000+0  12822-2 0  9997", "line2": "2 30050  96.8194 316.4593 0170948 353.0578  66.7155 13.85088382953832"}}, "geometry": {"type": "Point", "coordinates": [136.09853137278367, -7.958046679940925]}}, {"type": "Feature", "properties": {"norad_id": 30052, "name": "FENGYUN 1C DEB", "group": "fengyun-1c-debris", "lat": -43.50637459623388, "lon": -163.08713747001354, "alt_km": 806.4243216366467, "timestamp": "2025-12-26T15:29:39.712748+00:00", "meta": {"OBJECT_NAME": "FENGYUN 1C DEB", "OBJECT_ID": "1999-025PD", "EPOCH": "2025-12-26T00:41:45.847968", "MEAN_MOTION": 13.72975562, "ECCENTRICITY": 0.02894129, "INCLINATION": 99.2982, "RA_OF_ASC_NODE": 25.259, "ARG_OF_PERICENTER": 197.4239, "MEAN_ANOMALY": 219.1376, "EPHEMERIS_TYPE": 0, "CLASSIFICATION_TYPE": "U", "NORAD_CAT_ID": 30052, "ELEMENT_SET_NO": 999, "REV_AT_EPOCH": 94737, "BSTAR": 0.00043621377, "MEAN_MOTION_DOT": 5e-06, "MEAN_MOTION_DDOT": 0}, "tle": {"line1": "1 30052U 99025PD  25360.02900287  .00000500  00000+0  43621-3 0  9992", "line2": "2 30052  99.2982  25.2590 0289412 197.4239 219.1376 13.72975562947371"}}, "geometry": {"type": "Point", "coordinates": [-163.08713747001354, -43.50637459623388]}}, {"type": "Feature", "properties": {"norad_id": 30053, "name": "FENGYUN 1C DEB", "group": "fengyun-1c-debris", "lat": 42.32997178535666, "lon": 164.89358531981105, "alt_km": 958.082771998188, "timestamp": "2025-12-26T15:29:39.712758+00:00", "meta": {"OBJECT_NAME": "FENGYUN 1C DEB", "OBJECT_ID": "1999-025PE", "EPOCH": "2025-12-26T07:16:44.255136", "MEAN_MOTION": 13.94221832, "ECCENTRICITY": 0.03314829, "INCLINATION": 98.5759, "RA_OF_ASC_NODE": 172.4755, "ARG_OF_PERICENTER": 300.7076, "MEAN_ANOMALY": 181.4118, "EPHEMERIS_TYPE": 0, "CLASSIFICATION_TYPE": "U", "NORAD_CAT_ID": 30053, "ELEMENT_SET_NO": 999, "REV_AT_EPOCH": 95175, "BSTAR": 0.0018852848, "MEAN_MOTION_DOT": 3.909e-05, "MEAN_MOTION_DDOT": 0}, "tle": {"line1": "1 30053U 99025PE  25360.30328999  .00003909  00000+0  18853-2 0  9992", "line2": "2 30053  98.5759 172.4755 0331482 300.7076 181.4118 13.94221832951757"}}, "geometry": {"type": "Point", "coordinates": [164.89358531981105, 42.32997178535666]}}, {"type": "Feature", "properties": {"norad_id": 30054, "name": "FENGYUN 1C DEB", "group": "fengyun-1c-debris", "lat": 4.854967967017687, "lon": 31.72490447005838, "alt_km": 835.8378249153475, "timestamp": "2025-12-26T15:29:39.712768+00:00", "meta": {"OBJECT_NAME": "FENGYUN 1C DEB", "OBJECT_ID": "1999-025PF", "EPOCH": "2025-12-26T01:42:45.699264", "MEAN_MOTION": 13.69880076, "ECCENTRICITY": 0.02752955, "INCLINATION": 99.3702, "RA_OF_ASC_NODE": 31.9689, "ARG_OF_PERICENTER": 330.573, "MEAN_ANOMALY": 82.2478, "EPHEMERIS_TYPE": 0, "CLASSIFICATION_TYPE": "U", "NORAD_CAT_ID": 30054, "ELEMENT_SET_NO": 999, "REV_AT_EPOCH": 94531, "BSTAR": 0.00046566906, "MEAN_MOTION_DOT": 4.88e-06, "MEAN_MOTION_DDOT": 0}, "tle": {"line1": "1 30054U 99025PF  25360.07136226  .00000488  00000+0  46567-3 0  9990", "line2": "2 30054  99.3702  31.9689 0275295 330.5730  82.2478 13.69880076945312"}}, "geometry": {"type": "Point", "coordinates": [31.72490447005838, 4.854967967017687]}}, {"type": "Feature", "properties": {"norad_id": 30056, "name": "FENGYUN 1C DEB", "group": "fengyun-1c-debris", "lat": 28.340522395578855, "lon": 9.055882208789107, "alt_km": 778.6014920311118, "timestamp": "2025-12-26T15:29:39.712778+00:00", "meta": {"OBJECT_NAME": "FENGYUN 1C DEB", "OBJECT_ID": "1999-025PH", "EPOCH": "2025-12-25T12:32:30.651072", "MEAN_MOTION": 13.74061904, "ECCENTRICITY": 0.0299039, "INCLINATION": 98.3229, "RA_OF_ASC_NODE": 183.5474, "ARG_OF_PERICENTER": 176.2965, "MEAN_ANOMALY": 184.0501, "EPHEMERIS_TYPE": 0, "CLASSIFICATION_TYPE": "U", "NORAD_CAT_ID": 30056, "ELEMENT_SET_NO": 999, "REV_AT_EPOCH": 94151, "BSTAR": 0.0025009, "MEAN_MOTION_DOT": 3.213e-05, "MEAN_MOTION_DDOT": 0}, "tle": {"line1": "1 30056U 99025PH  25359.52257698  .00003213  00000+0  25009-2 0  9993", "line2": "2 30056  98.3229 183.5474 0299039 176.2965 184.0501 13.74061904941513"}}, "geometry": {"type": "Point", "coordinates": [9.055882208789107, 28.340522395578855]}}, {"type": "Feature", "properties": {"norad_id": 30057, "name": "FENGYUN 1C DEB", "group": "fengyun-1c-debris", "lat": 23.908617270859082, "lon": -107.9697196887749, "alt_km": 889.0632201899716, "timestamp": "2025-12-26T15:29:39.712789+00:00", "meta": {"OBJECT_NAME": "FENGYUN 1C DEB", "OBJECT_ID": "1999-025PJ", "EPOCH": "2025-12-26T04:25:03.887328", "MEAN_MOTION": 13.57153897, "ECCENTRICITY": 0.02916818, "INCLINATION": 98.8824, "RA_OF_ASC_NODE": 67.6377, "ARG_OF_PERICENTER": 111.8897, "MEAN_ANOMALY": 307.7548, "EPHEMERIS_TYPE": 0, "CLASSIFICATION_TYPE": "U", "NORAD_CAT_ID": 30057, "ELEMENT_SET_NO": 999, "REV_AT_EPOCH": 93418, "BSTAR": 0.0012291555, "MEAN_MOTION_DOT": 1.119e-05, "MEAN_MOTION_DDOT": 0}, "tle": {"line1": "1 30057U 99025PJ  25360.18407277  .00001119  00000+0  12292-2 0  9991", "line2": "2 30057  98.8824  67.6377 0291681 111.8897 307.7548 13.57153897934182"}}, "geometry": {"type": "Point", "coordinates": [-107.9697196887749, 23.908617270859082]}}, {"type": "Feature", "properties": {"norad_id": 30058, "name": "FENGYUN 1C DEB", "group": "fengyun-1c-debris", "lat": 42.50692687504157, "lon": -166.59291627445148, "alt_km": 851.3820270511878, "timestamp": "2025-12-26T15:29:39.712799+00:00", "meta": {"OBJECT_NAME": "FENGYUN 1C DEB", "OBJECT_ID": "1999-025PK", "EPOCH": "2025-12-25T22:58:24.150144", "MEAN_MOTION": 13.48253074, "ECCENTRICITY": 0.0315758, "INCLINATION": 99.6499, "RA_OF_ASC_NODE": 3.7701, "ARG_OF_PERICENTER": 119.5682, "MEAN_ANOMALY": 276.4839, "EPHEMERIS_TYPE": 0, "CLASSIFICATION_TYPE": "U", "NORAD_CAT_ID": 30058, "ELEMENT_SET_NO": 999, "REV_AT_EPOCH": 93026, "BSTAR": 0.00070421, "MEAN_MOTION_DOT": 5.51e-06, "MEAN_MOTION_DDOT": 0}, "tle": {"line1": "1 30058U 99025PK  25359.95722396  .00000551  00000+0  70421-3 0  9995", "line2": "2 30058  99.6499   3.7701 0315758 119.5682 276.4839 13.48253074930269"}}, "geometry": {"type": "Point", "coordinates": [-166.59291627445148, 42.50692687504157]}}, {"type": "Feature", "properties": {"norad_id": 30059, "name": "FENGYUN 1C DEB", "group": "fengyun-1c-debris", "lat": 32.013002256891085, "lon": 179.8531993505417, "alt_km": 1202.1613178414727, "timestamp": "2025-12-26T15:29:39.712810+00:00", "meta": {"OBJECT_NAME": "FENGYUN 1C DEB", "OBJECT_ID": "1999-025PL", "EPOCH": "2025-12-26T05:54:17.245152", "MEAN_MOTION": 13.45501388, "ECCENTRICITY": 0.03264114, "INCLINATION": 98.8233, "RA_OF_ASC_NODE": 353.9289, "ARG_OF_PERICENTER": 268.3407, "MEAN_ANOMALY": 108.0047, "EPHEMERIS_TYPE": 0, "CLASSIFICATION_TYPE": "U", "NORAD_CAT_ID": 30059, "ELEMENT_SET_NO": 999, "REV_AT_EPOCH": 92979, "BSTAR": 0.00030317516, "MEAN_MOTION_DOT": 2.09e-06, "MEAN_MOTION_DDOT": 0}, "tle": {"line1": "1 30059U 99025PL  25360.24603293  .00000209  00000+0  30318-3 0  9995", "line2": "2 30059  98.8233 353.9289 0326411 268.3407 108.0047 13.45501388929792"}}, "geometry": {"type": "Point", "coordinates": [179.8531993505417, 32.013002256891085]}}, {"type": "Feature", "properties": {"norad_id": 30060, "name": "FENGYUN 1C DEB", "group": "fengyun-1c-debris", "lat": -56.27869275020063, "lon": -119.43623029877449, "alt_km": 1112.8891374425075, "timestamp": "2025-12-26T15:29:39.712820+00:00", "meta": {"OBJECT_NAME": "FENGYUN 1C DEB", "OBJECT_ID": "1999-025PM", "EPOCH": "2025-12-25T02:58:21.019296", "MEAN_MOTION": 13.43805985, "ECCENTRICITY": 0.03460059, "INCLINATION": 99.3148, "RA_OF_ASC_NODE": 224.9186, "ARG_OF_PERICENTER": 40.7835, "MEAN_ANOMALY": 107.8288, "EPHEMERIS_TYPE": 0, "CLASSIFICATION_TYPE": "U", "NORAD_CAT_ID": 30060, "ELEMENT_SET_NO": 999, "REV_AT_EPOCH": 92409, "BSTAR": 0.0025586713, "MEAN_MOTION_DOT": 2.074e-05, "MEAN_MOTION_DDOT": 0}, "tle": {"line1": "1 30060U 99025PM  25359.12385439  .00002074  00000+0  25587-2 0  9994", "line2": "2 30060  99.3148 224.9186 0346005  40.7835 107.8288 13.43805985924096"}}, "geometry": {"type": "Point", "coordinates": [-119.43623029877449, -56.27869275020063]}}]}